[{"OBJECT_NAME":"YAOGAN-17 01C","OBJECT_ID":"2013-046C","EPOCH":"2026-03-09T22:49:09.220224","MEAN_MOTION":13.45468102,"ECCENTRICITY":0.04184069,"INCLINATION":63.3909,"RA_OF_ASC_NODE":345.602,"ARG_OF_PERICENTER":11.0275,"MEAN_ANOMALY":349.958,"EPHEMERIS_TYPE":0,"CLASSIFICATION_TYPE":"U","NORAD_CAT_ID":39241,"ELEMENT_SET_NO":999,"REV_AT_EPOCH":61502,"BSTAR":0.00017374779,"MEAN_MOTION_DOT":8.4e-7,"MEAN_MOTION_DDOT":0},{"OBJECT_NAME":"SL-16 DEB","OBJECT_ID":"1998-043H","EPOCH":"2026-03-09T22:47:50.942688","MEAN_MOTION":13.94802366,"ECCENTRICITY":0.0159833,"INCLINATION":98.5335,"RA_OF_ASC_NODE":199.2783,"ARG_OF_PERICENTER":252.1319,"MEAN_ANOMALY":223.0863,"EPHEMERIS_TYPE":0,"CLASSIFICATION_TYPE":"U","NORAD_CAT_ID":25401,"ELEMENT_SET_NO":999,"REV_AT_EPOCH":40671,"BSTAR":0.00030455856,"MEAN_MOTION_DOT":4.14e-6,"MEAN_MOTION_DDOT":0}]
